{
    "links": {
        "self": "http://www.neowsapp.com/rest/v1/neo/3682926?api_key=iIulBulltgU6a56xZRHN4H3l9WmuAYTsLGpBGhQ2"
    },
    "id": "3682926",
    "neo_reference_id": "3682926",
    "name": "(2014 QU169)",
    "designation": "2014 QU169",
    "nasa_jpl_url": "http://ssd.jpl.nasa.gov/sbdb.cgi?sstr=3682926",
    "absolute_magnitude_h": 22.2,
    "estimated_diameter": {
        "kilometers": {
            "estimated_diameter_min": 0.096506147,
            "estimated_diameter_max": 0.2157943048
        },
        "meters": {
            "estimated_diameter_min": 96.5061469579,
            "estimated_diameter_max": 215.7943048444
        },
        "miles": {
            "estimated_diameter_min": 0.059966121,
            "estimated_diameter_max": 0.134088323
        },
        "feet": {
            "estimated_diameter_min": 316.6212271853,
            "estimated_diameter_max": 707.9865871058
        }
    },
    "is_potentially_hazardous_asteroid": false,
    "close_approach_data": [
        {
            "close_approach_date": "2014-08-16",
            "close_approach_date_full": "2014-Aug-16 18:40",
            "epoch_date_close_approach": 1408214400000,
            "relative_velocity": {
                "kilometers_per_second": "3.0044302684",
                "kilometers_per_hour": "10815.9489661697",
                "miles_per_hour": "6720.6100673403"
            },
            "miss_distance": {
                "astronomical": "0.2528576266",
                "lunar": "98.3616167474",
                "kilometers": "37826962.352615342",
                "miles": "23504584.4838500396"
            },
            "orbiting_body": "Earth"
        },
        {
            "close_approach_date": "2048-12-17",
            "close_approach_date_full": "2048-Dec-17 11:24",
            "epoch_date_close_approach": 2491817040000,
            "relative_velocity": {
                "kilometers_per_second": "6.9694040665",
                "kilometers_per_hour": "25089.8546394196",
                "miles_per_hour": "15589.859956366"
            },
            "miss_distance": {
                "astronomical": "0.0295392466",
                "lunar": "11.4907669274",
                "kilometers": "4419008.372764742",
                "miles": "2745844.4763357596"
            },
            "orbiting_body": "Mars"
        },
        {
            "close_approach_date": "2073-08-10",
            "close_approach_date_full": "2073-Aug-10 00:40",
            "epoch_date_close_approach": 3269551200000,
            "relative_velocity": {
                "kilometers_per_second": "3.1268955183",
                "kilometers_per_hour": "11256.8238657762",
                "miles_per_hour": "6994.5525848208"
            },
            "miss_distance": {
                "astronomical": "0.2746420457",
                "lunar": "106.8357557773",
                "kilometers": "41085865.049162659",
                "miles": "25529572.7195323342"
            },
            "orbiting_body": "Earth"
        }
    ],
    "orbital_data": {
        "orbit_id": "12",
        "orbit_determination_date": "2017-04-06 08:39:13",
        "first_observation_date": "2014-08-22",
        "last_observation_date": "2014-10-17",
        "data_arc_in_days": 56,
        "observations_used": 39,
        "orbit_uncertainty": "5",
        "minimum_orbit_intersection": ".254704",
        "jupiter_tisserand_invariant": "3.609",
        "epoch_osculation": "2459000.5",
        "eccentricity": ".4064320013336965",
        "semi_major_axis": "2.128796560629964",
        "inclination": "4.585666383179848",
        "ascending_node_longitude": "169.6431688857755",
        "orbital_period": "1134.48737352078",
        "perihelion_distance": "1.263585514060838",
        "perihelion_argument": "152.5687032179646",
        "aphelion_distance": "2.99400760719909",
        "perihelion_time": "2459152.964534303534",
        "mean_anomaly": "311.6193537007516",
        "mean_motion": ".3173239371389142",
        "equinox": "J2000",
        "orbit_class": {
            "orbit_class_type": "AMO",
            "orbit_class_description": "Near-Earth asteroid orbits similar to that of 1221 Amor",
            "orbit_class_range": "1.017 AU < q (perihelion) < 1.3 AU"
        }
    },
    "is_sentry_object": false
}